{"fetched_at":"2026-07-15T17:46:51.301Z","source":"https://celestrak.org/NORAD/elements/gp.php?GROUP=spire&FORMAT=JSON","constellation":"spire","records":[{"OBJECT_NAME":"LEMUR-2-VALHALLA","OBJECT_ID":"2024-022B","EPOCH":"2026-07-15T03:26:37.410720","CLASSIFICATION_TYPE":"U","MEAN_MOTION":15.40486977,"ECCENTRICITY":0.0009214,"INCLINATION":97.4076,"RA_OF_ASC_NODE":46.4839,"ARG_OF_PERICENTER":24.3908,"MEAN_ANOMALY":335.7773,"EPHEMERIS_TYPE":0,"NORAD_CAT_ID":58900,"ELEMENT_SET_NO":999,"REV_AT_EPOCH":13657,"BSTAR":0.00022826,"MEAN_MOTION_DOT":0.00009181,"MEAN_MOTION_DDOT":0},{"OBJECT_NAME":"LEMUR-2-CAEL","OBJECT_ID":"2024-022E","EPOCH":"2026-07-15T03:05:57.581952","CLASSIFICATION_TYPE":"U","MEAN_MOTION":15.4185443,"ECCENTRICITY":0.0007125,"INCLINATION":97.4057,"RA_OF_ASC_NODE":47.4555,"ARG_OF_PERICENTER":9.8241,"MEAN_ANOMALY":350.3144,"EPHEMERIS_TYPE":0,"NORAD_CAT_ID":58903,"ELEMENT_SET_NO":999,"REV_AT_EPOCH":13664,"BSTAR":0.00024954,"MEAN_MOTION_DOT":0.00010508,"MEAN_MOTION_DDOT":0},{"OBJECT_NAME":"LEMUR-2-JOHNNYTRUONG","OBJECT_ID":"2024-043BA","EPOCH":"2026-07-14T23:04:54.033600","CLASSIFICATION_TYPE":"U","MEAN_MOTION":15.62548407,"ECCENTRICITY":0.0004101,"INCLINATION":97.5391,"RA_OF_ASC_NODE":349.4319,"ARG_OF_PERICENTER":94.529,"MEAN_ANOMALY":265.6437,"EPHEMERIS_TYPE":0,"NORAD_CAT_ID":59146,"ELEMENT_SET_NO":999,"REV_AT_EPOCH":13237,"BSTAR":0.0003145,"MEAN_MOTION_DOT":0.00027955,"MEAN_MOTION_DDOT":0},{"OBJECT_NAME":"LEMUR-2-TOMATOKECHUP","OBJECT_ID":"2024-149D","EPOCH":"2026-07-15T04:18:39.280320","CLASSIFICATION_TYPE":"U","MEAN_MOTION":15.36582532,"ECCENTRICITY":0.0003289,"INCLINATION":97.38,"RA_OF_ASC_NODE":278.3072,"ARG_OF_PERICENTER":122.7219,"MEAN_ANOMALY":237.4342,"EPHEMERIS_TYPE":0,"NORAD_CAT_ID":60471,"ELEMENT_SET_NO":999,"REV_AT_EPOCH":10646,"BSTAR":0.00017522,"MEAN_MOTION_DOT":0.00006176,"MEAN_MOTION_DDOT":0},{"OBJECT_NAME":"LEMUR-2-STELLA","OBJECT_ID":"2024-149BT","EPOCH":"2026-07-15T03:21:27.640800","CLASSIFICATION_TYPE":"U","MEAN_MOTION":15.12370018,"ECCENTRICITY":0.0001262,"INCLINATION":97.6739,"RA_OF_ASC_NODE":278.7272,"ARG_OF_PERICENTER":117.9259,"MEAN_ANOMALY":242.2099,"EPHEMERIS_TYPE":0,"NORAD_CAT_ID":60533,"ELEMENT_SET_NO":999,"REV_AT_EPOCH":10472,"BSTAR":0.00030849,"MEAN_MOTION_DOT":0.00005285,"MEAN_MOTION_DDOT":0},{"OBJECT_NAME":"LEMUR-2-MARHISYAM","OBJECT_ID":"2024-149BW","EPOCH":"2026-07-15T01:33:01.804608","CLASSIFICATION_TYPE":"U","MEAN_MOTION":15.11775917,"ECCENTRICITY":0.0002498,"INCLINATION":97.6883,"RA_OF_ASC_NODE":279.1278,"ARG_OF_PERICENTER":69.013,"MEAN_ANOMALY":291.1366,"EPHEMERIS_TYPE":0,"NORAD_CAT_ID":60536,"ELEMENT_SET_NO":999,"REV_AT_EPOCH":10469,"BSTAR":0.00033056,"MEAN_MOTION_DOT":0.00005575,"MEAN_MOTION_DDOT":0},{"OBJECT_NAME":"LEMUR-2-AHMED-ASRAR","OBJECT_ID":"2024-149DN","EPOCH":"2026-07-14T19:21:43.600032","CLASSIFICATION_TYPE":"U","MEAN_MOTION":15.13301229,"ECCENTRICITY":0.00011348,"INCLINATION":97.7008,"RA_OF_ASC_NODE":281.0702,"ARG_OF_PERICENTER":205.8662,"MEAN_ANOMALY":154.2512,"EPHEMERIS_TYPE":0,"NORAD_CAT_ID":60576,"ELEMENT_SET_NO":999,"REV_AT_EPOCH":10474,"BSTAR":0.00033683509,"MEAN_MOTION_DOT":0.0000593,"MEAN_MOTION_DDOT":0},{"OBJECT_NAME":"LEMUR-2-LLOYD","OBJECT_ID":"2024-149DP","EPOCH":"2026-07-15T03:34:01.392672","CLASSIFICATION_TYPE":"U","MEAN_MOTION":15.0975075,"ECCENTRICITY":0.0004803,"INCLINATION":97.675,"RA_OF_ASC_NODE":277.3011,"ARG_OF_PERICENTER":72.7044,"MEAN_ANOMALY":287.471,"EPHEMERIS_TYPE":0,"NORAD_CAT_ID":60577,"ELEMENT_SET_NO":999,"REV_AT_EPOCH":10461,"BSTAR":0.0003148,"MEAN_MOTION_DOT":0.00005016,"MEAN_MOTION_DDOT":0},{"OBJECT_NAME":"LEMUR-2-SQUIRRELCOMM","OBJECT_ID":"2024-149DQ","EPOCH":"2026-07-15T03:17:31.094880","CLASSIFICATION_TYPE":"U","MEAN_MOTION":15.07446412,"ECCENTRICITY":0.000408,"INCLINATION":97.6712,"RA_OF_ASC_NODE":276.9648,"ARG_OF_PERICENTER":328.3749,"MEAN_ANOMALY":31.7233,"EPHEMERIS_TYPE":0,"NORAD_CAT_ID":60578,"ELEMENT_SET_NO":999,"REV_AT_EPOCH":10461,"BSTAR":0.00016013,"MEAN_MOTION_DOT":0.00002363,"MEAN_MOTION_DDOT":0},{"OBJECT_NAME":"LEMUR-2-SIERRINI","OBJECT_ID":"2024-149DR","EPOCH":"2026-07-15T03:49:55.666848","CLASSIFICATION_TYPE":"U","MEAN_MOTION":15.11512778,"ECCENTRICITY":0.0006477,"INCLINATION":97.6849,"RA_OF_ASC_NODE":278.8848,"ARG_OF_PERICENTER":91.0767,"MEAN_ANOMALY":269.1205,"EPHEMERIS_TYPE":0,"NORAD_CAT_ID":60579,"ELEMENT_SET_NO":999,"REV_AT_EPOCH":10468,"BSTAR":0.00035465,"MEAN_MOTION_DOT":0.00005945,"MEAN_MOTION_DDOT":0},{"OBJECT_NAME":"LEMUR-2-WILSON","OBJECT_ID":"2025-009CP","EPOCH":"2026-07-15T03:14:17.528640","CLASSIFICATION_TYPE":"U","MEAN_MOTION":14.95276365,"ECCENTRICITY":0.0002024,"INCLINATION":97.7021,"RA_OF_ASC_NODE":274.1097,"ARG_OF_PERICENTER":325.2513,"MEAN_ANOMALY":34.8575,"EPHEMERIS_TYPE":0,"NORAD_CAT_ID":62694,"ELEMENT_SET_NO":999,"REV_AT_EPOCH":8153,"BSTAR":0.000066337,"MEAN_MOTION_DOT":0.00000674,"MEAN_MOTION_DDOT":0},{"OBJECT_NAME":"LEMUR-2-STAR-FOX","OBJECT_ID":"2025-009CR","EPOCH":"2026-07-15T04:38:33.025056","CLASSIFICATION_TYPE":"U","MEAN_MOTION":15.0284072,"ECCENTRICITY":0.0002231,"INCLINATION":97.691,"RA_OF_ASC_NODE":277.6011,"ARG_OF_PERICENTER":42.2446,"MEAN_ANOMALY":317.895,"EPHEMERIS_TYPE":0,"NORAD_CAT_ID":62696,"ELEMENT_SET_NO":999,"REV_AT_EPOCH":8176,"BSTAR":0.0002575,"MEAN_MOTION_DOT":0.00003389,"MEAN_MOTION_DDOT":0},{"OBJECT_NAME":"LEMUR-2-ARIANNA","OBJECT_ID":"2025-009CU","EPOCH":"2026-07-15T04:36:20.551392","CLASSIFICATION_TYPE":"U","MEAN_MOTION":15.02842721,"ECCENTRICITY":0.000256,"INCLINATION":97.6852,"RA_OF_ASC_NODE":277.3518,"ARG_OF_PERICENTER":48.855,"MEAN_ANOMALY":311.2895,"EPHEMERIS_TYPE":0,"NORAD_CAT_ID":62699,"ELEMENT_SET_NO":999,"REV_AT_EPOCH":8176,"BSTAR":0.0002768,"MEAN_MOTION_DOT":0.00003648,"MEAN_MOTION_DDOT":0},{"OBJECT_NAME":"LEMUR-2-ALISIA","OBJECT_ID":"2025-009DB","EPOCH":"2026-07-15T03:56:33.156096","CLASSIFICATION_TYPE":"U","MEAN_MOTION":15.03175424,"ECCENTRICITY":0.0004296,"INCLINATION":97.6973,"RA_OF_ASC_NODE":278.1493,"ARG_OF_PERICENTER":129.259,"MEAN_ANOMALY":230.9017,"EPHEMERIS_TYPE":0,"NORAD_CAT_ID":62706,"ELEMENT_SET_NO":999,"REV_AT_EPOCH":10436,"BSTAR":0.00033038,"MEAN_MOTION_DOT":0.00004406,"MEAN_MOTION_DDOT":0},{"OBJECT_NAME":"LEMUR-2-ROUNDTRIPPER","OBJECT_ID":"2025-009DG","EPOCH":"2026-07-15T04:04:03.412416","CLASSIFICATION_TYPE":"U","MEAN_MOTION":15.04231838,"ECCENTRICITY":0.0004458,"INCLINATION":97.7253,"RA_OF_ASC_NODE":278.8143,"ARG_OF_PERICENTER":63.8753,"MEAN_ANOMALY":296.2931,"EPHEMERIS_TYPE":0,"NORAD_CAT_ID":62711,"ELEMENT_SET_NO":999,"REV_AT_EPOCH":8183,"BSTAR":0.00033632,"MEAN_MOTION_DOT":0.00004615,"MEAN_MOTION_DDOT":0},{"OBJECT_NAME":"LEMUR-2-MYNAMEISJEFF","OBJECT_ID":"2025-009DH","EPOCH":"2026-07-15T04:01:52.671936","CLASSIFICATION_TYPE":"U","MEAN_MOTION":15.04222993,"ECCENTRICITY":0.0004066,"INCLINATION":97.7303,"RA_OF_ASC_NODE":279.2107,"ARG_OF_PERICENTER":97.4624,"MEAN_ANOMALY":262.7064,"EPHEMERIS_TYPE":0,"NORAD_CAT_ID":62712,"ELEMENT_SET_NO":999,"REV_AT_EPOCH":8183,"BSTAR":0.00033262,"MEAN_MOTION_DOT":0.00004562,"MEAN_MOTION_DDOT":0}]}
